NORAD_CAT_ID,OBJECT_NAME,OBJECT_TYPE,EPOCH,MEAN_MOTION,ECCENTRICITY,INCLINATION,RA_OF_ASC_NODE,ARG_OF_PERICENTER,MEAN_ANOMALY,BSTAR,MEAN_MOTION_DOT,MEAN_MOTION_DDOT,TLE_LINE0,TLE_LINE1,TLE_LINE2,SEMIMAJOR_AXIS,PERIOD,APOGEE,PERIGEE,DECAYED
52272.0,STARLINK-3781,PAYLOAD,2022-08-25 06:00:02,15.08811165,0.0002036,53.2176,151.0977,53.305,199.8038,0.0022308,0.00035366,0.0,0 STARLINK-3781,1 52272U 22041M   22237.25002315  .00035366  00000-0  22308-2 0  9991,2 52272  53.2176 151.0977 0002036  53.3050 199.8038 15.08811165 20478,6917.969,95.439,541.242,538.425,0.0
52272.0,STARLINK-3781,PAYLOAD,2022-08-25 14:00:01,15.08814811,0.0001968,53.2175,149.6018,56.3568,208.2687,0.0019823,0.0003138,0.0,0 STARLINK-3781,1 52272U 22041M   22237.58334491  .00031380  00000-0  19823-2 0  9990,2 52272  53.2175 149.6018 0001968  56.3568 208.2687 15.08814811  1303,6917.956999999999,95.439,541.184,538.461,0.0
52272.0,STARLINK-3781,PAYLOAD,2022-08-25 22:00:00,15.08837108,0.0002092,53.2175,148.1076,54.8149,221.3887,-8.414200000000002e-07,-3.02e-06,0.0,0 STARLINK-3781,1 52272U 22041M   22237.91667824 -.00000302  00000-0 -84142-6 0  9998,2 52272  53.2175 148.1076 0002092  54.8149 221.3887 15.08837108 20570,6917.889,95.438,541.201,538.307,0.0
52272.0,STARLINK-3781,PAYLOAD,2022-08-26 14:00:01,15.08815142,0.0001981,53.2174,145.111,61.6989,237.7484,0.0026555,0.00042199,0.0,0 STARLINK-3781,1 52272U 22041M   22238.58335648  .00042199  00000-0  26555-2 0  9996,2 52272  53.2174 145.1110 0001981  61.6989 237.7484 15.08815142  1307,6917.956,95.439,541.192,538.451,0.0
52272.0,STARLINK-3781,PAYLOAD,2022-08-26 22:00:00,15.08856141,0.0002091,53.2174,143.6158,60.9141,250.0523,-0.0015626,-0.00025083,0.0,0 STARLINK-3781,1 52272U 22041M   22238.91667824 -.00025083  00000-0 -15626-2 0  9999,2 52272  53.2174 143.6158 0002091  60.9141 250.0523 15.08856141  1303,6917.831,95.437,541.143,538.25,0.0
52272.0,STARLINK-3781,PAYLOAD,2022-08-27 14:00:01,15.08836142,0.0002015,53.2173,140.6221,62.6469,271.5355,0.0015258,0.00024076,0.0,0 STARLINK-3781,1 52272U 22041M   22239.58334491  .00024076  00000-0  15258-2 0  9994,2 52272  53.2173 140.6221 0002015  62.6469 271.5355 15.08836142  1308,6917.892,95.438,541.151,538.363,0.0
52272.0,STARLINK-3781,PAYLOAD,2022-08-27 22:00:00,15.08851979,0.0002106999999999,53.2174,139.1269,60.282,285.5025,-0.002248,-0.000359,0.0,0 STARLINK-3781,1 52272U 22041M   22239.91667824 -.00035900  00000-0 -22480-2 0  9995,2 52272  53.2174 139.1269 0002107  60.2820 285.5025 15.08851979 20878,6917.844,95.437,541.1659999999998,538.251,0.0
52272.0,STARLINK-3781,PAYLOAD,2022-08-28 14:00:01,15.08820811,0.0002019,53.2174,136.13299999999998,62.3551,306.6313,0.0034038,0.00054273,0.0,0 STARLINK-3781,1 52272U 22041M   22240.58334491  .00054273  00000-0  34038-2 0  9995,2 52272  53.2174 136.1330 0002019  62.3551 306.6313 15.08820811 20988,6917.939,95.439,541.201,538.4069999999998,0.0
52272.0,STARLINK-3781,PAYLOAD,2022-08-28 22:00:00,15.08873338,0.0002128,53.2175,134.6379,59.5008,321.0756,-0.0044028,-0.00069747,0.0,0 STARLINK-3781,1 52272U 22041M   22240.91667824 -.00069747  00000-0 -44028-2 0  9995,2 52272  53.2175 134.6379 0002128  59.5008 321.0756 15.08873338  1300,6917.778,95.435,541.116,538.1709999999998,0.0
52272.0,STARLINK-3781,PAYLOAD,2022-08-29 06:00:02,15.08830661,0.0002116,53.2173,133.1417,55.3863,336.8559,0.00033232,5.003e-05,0.0,0 STARLINK-3781,1 52272U 22041M   22241.25002315  .00005003  00000-0  33232-3 0  9990,2 52272  53.2173 133.1417 0002116  55.3863 336.8559 15.08830661 21089,6917.909000000002,95.438,541.238,538.31,0.0
52272.0,STARLINK-3781,PAYLOAD,2022-08-29 14:00:01,15.08811028,0.0002,53.2175,131.6438,62.3442,341.4301,0.0032491,0.00051761,0.0,0 STARLINK-3781,1 52272U 22041M   22241.58334491  .00051761  00000-0  32491-2 0  9996,2 52272  53.2175 131.6438 0002000  62.3442 341.4301 15.08811028  1306,6917.969,95.439,541.2180000000002,538.45,0.0
52272.0,STARLINK-3781,PAYLOAD,2022-08-29 22:00:00,15.0885264,0.0002145,53.2176,130.1488,59.7338,355.6218,-0.0014075,-0.00022627,0.0,0 STARLINK-3781,1 52272U 22041M   22241.91667824 -.00022627  00000-0 -14075-2 0  9991,2 52272  53.2176 130.1488 0002145  59.7338 355.6218 15.08852640  1309,6917.842,95.437,541.191,538.2230000000002,0.0
52272.0,STARLINK-3781,PAYLOAD,2022-08-30 14:00:01,15.08803129,0.0001924,53.2175,127.1545,62.6603,15.9093,0.0030835999999999,0.0004908,0.0,0 STARLINK-3781,1 52272U 22041M   22242.58334491  .00049080  00000-0  30836-2 0  9999,2 52272  53.2175 127.1545 0001924  62.6603  15.9093 15.08803129 21284,6917.993,95.44,541.189,538.5269999999998,0.0
52272.0,STARLINK-3781,PAYLOAD,2022-08-30 22:00:00,15.08841844,0.0002065,53.2175,125.6597,59.6313,30.5104,-0.0011929,-0.00019224,0.0,0 STARLINK-3781,1 52272U 22041M   22242.91667824 -.00019224  00000-0 -11929-2 0  9996,2 52272  53.2175 125.6597 0002065  59.6313  30.5104 15.08841844  1308,6917.875,95.437,541.168,538.311,0.0
52272.0,STARLINK-3781,PAYLOAD,2022-08-31 14:00:01,15.08834572,0.0001886999999999,53.2174,122.6653,64.3836,48.9433,7.9403e-05,9.76e-06,0.0,0 STARLINK-3781,1 52272U 22041M   22243.58334491  .00000976  00000-0  79403-4 0  9996,2 52272  53.2174 122.6653 0001887  64.3836  48.9433 15.08834572  1309,6917.897,95.438,541.067,538.457,0.0
52272.0,STARLINK-3781,PAYLOAD,2022-08-31 22:00:00,15.08828934,0.0001956999999999,53.2172,121.1706,59.8452,65.0761,-0.0010532,-0.00017006,0.0,0 STARLINK-3781,1 52272U 22041M   22243.91667824 -.00017006  00000-0 -10532-2 0  9992,2 52272  53.2172 121.1706 0001957  59.8452  65.0761 15.08828934  1300,6917.9140000000025,95.438,541.133,538.425,0.0
52272.0,STARLINK-3781,PAYLOAD,2022-09-01 14:00:01,15.08814747,0.0001843,53.217,118.1762,66.2175,81.9229,0.0024302,0.00038574,0.0,0 STARLINK-3781,1 52272U 22041M   22244.58335648  .00038574  00000-0  24302-2 0  9993,2 52272  53.2170 118.1762 0001843  66.2175  81.9229 15.08814747 21589,6917.958000000001,95.439,541.0980000000002,538.548,0.0
52272.0,STARLINK-3781,PAYLOAD,2022-09-01 22:00:00,15.08840108,0.0001971,53.2169,116.6816,61.8294,97.8322,-0.00073912,-0.00012032,0.0,0 STARLINK-3781,1 52272U 22041M   22244.91667824 -.00012032  00000-0 -73912-3 0  9999,2 52272  53.2169 116.6816 0001971  61.8294  97.8322 15.08840108  1303,6917.88,95.438,541.109,538.382,0.0
52272.0,STARLINK-3781,PAYLOAD,2022-09-02 06:00:00,15.0885253,0.0001956999999999,53.2166,115.1848,61.2283,110.017,-0.0014049,-0.00022586,0.0,0 STARLINK-3781,1 52272U 22041M   22245.25001157 -.00022586  00000-0 -14049-2 0  9998,2 52272  53.2166 115.1848 0001957  61.2283 110.0170 15.08852530 21689,6917.842,95.437,541.061,538.3530000000002,0.0
52272.0,STARLINK-3781,PAYLOAD,2022-09-02 14:00:01,15.08830315,0.000188,53.2167,113.6872,68.292,114.5547,0.0019579,0.00031001,0.0,0 STARLINK-3781,1 52272U 22041M   22245.58334491  .00031001  00000-0  19579-2 0  9997,2 52272  53.2167 113.6872 0001880  68.2920 114.5547 15.08830315  1301,6917.91,95.438,541.076,538.474,0.0
52272.0,STARLINK-3781,PAYLOAD,2022-09-02 22:00:01,15.08851948,0.0001955999999999,53.2167,112.1925,62.505,132.0039,-0.0032101,-0.00051033,0.0,0 STARLINK-3781,1 52272U 22041M   22245.91668981 -.00051033  00000-0 -32101-2 0  9993,2 52272  53.2167 112.1925 0001956  62.5050 132.0039 15.08851948  1305,6917.844,95.437,541.062,538.356,0.0
52272.0,STARLINK-3781,PAYLOAD,2022-09-03 06:00:00,15.08839805,0.0001872,53.2165,110.6956,61.2229,144.8096,-0.001739,-0.00027858,0.0,0 STARLINK-3781,1 52272U 22041M   22246.25001157 -.00027858  00000-0 -17390-2 0  9998,2 52272  53.2165 110.6956 0001872  61.2229 144.8096 15.08839805 21833,6917.880999999999,95.438,541.0409999999998,538.451,0.0
52272.0,STARLINK-3781,PAYLOAD,2022-09-03 14:00:01,15.08820258,0.0001831999999999,53.2167,109.1982,68.0957,149.5226,0.0019972,0.00031623,0.0,0 STARLINK-3781,1 52272U 22041M   22246.58334491  .00031623  00000-0  19972-2 0  9995,2 52272  53.2167 109.1982 0001832  68.0957 149.5226 15.08820258  1305,6917.941,95.439,541.073,538.538,0.0
52272.0,STARLINK-3781,PAYLOAD,2022-09-03 22:00:00,15.0883391,0.0001976,53.2168,107.7036,62.0096,167.1974,0.0001051,1.385e-05,0.0,0 STARLINK-3781,1 52272U 22041M   22246.91667824  .00001385  00000-0  10510-3 0  9993,2 52272  53.2168 107.7036 0001976  62.0096 167.1974 15.08833910 21933,6917.899,95.438,541.131,538.3969999999998,0.0
52272.0,STARLINK-3781,PAYLOAD,2022-09-04 14:00:01,15.08856217,0.0001839,53.2172,104.7091,67.6579,184.8116,-0.00083672,-0.00013586,0.0,0 STARLINK-3781,1 52272U 22041M   22247.58335648 -.00013586  00000-0 -83672-3 0  9990,2 52272  53.2172 104.7091 0001839  67.6579 184.8116 15.08856217  1309,6917.831,95.437,540.9680000000002,538.424,0.0
52272.0,STARLINK-3781,PAYLOAD,2022-09-04 20:00:01,15.08846705,0.0001892,53.2172,103.5883,61.9708,109.1544,-0.0008413,-0.00013655,0.0,0 STARLINK-3781,1 52272U 22041M   22247.83334491 -.00013655  00000-0 -84130-3 0  9990,2 52272  53.2172 103.5883 0001892  61.9708 109.1544 15.08846705 22078,6917.86,95.437,541.034,538.4159999999998,0.0
52272.0,STARLINK-3781,PAYLOAD,2022-09-05 14:00:01,15.08830184,0.0001716,53.2178,100.2201,65.1024,222.1338,0.0017472999999999,0.00027622,0.0,0 STARLINK-3781,1 52272U 22041M   22248.58334491  .00027622  00000-0  17473-2 0  9995,2 52272  53.2178 100.2201 0001716  65.1024 222.1338 15.08830184 22187,6917.91,95.438,540.9630000000002,538.5880000000002,0.0
52272.0,STARLINK-3781,PAYLOAD,2022-09-05 22:00:00,15.0882378,0.0001829,53.218,98.7256,57.1752,241.654,-0.00085486,-0.00013862,0.0,0 STARLINK-3781,1 52272U 22041M   22248.91667824 -.00013862  00000-0 -85486-3 0  9994,2 52272  53.2180  98.7256 0001829  57.1752 241.6540 15.08823780 22236,6917.93,95.439,541.06,538.53,0.0
52272.0,STARLINK-3781,PAYLOAD,2022-09-06 12:00:00,15.08821958,0.0001692,53.2181,96.1053,63.617,165.4698,0.00012776,1.745e-05,0.0,0 STARLINK-3781,1 52272U 22041M   22249.50001157  .00001745  00000-0  12776-3 0  9998,2 52272  53.2181  96.1053 0001692  63.6170 165.4698 15.08821958 22320,6917.936,95.439,540.971,538.63,0.0
